IRIDIUM 106             
1 41917U 17003A   23297.52242593  .00000133  00000+0  40276-4 0  9997
2 41917  86.3946 132.5429 0001987  93.6717 266.4706 14.34216637354655
IRIDIUM 103             
1 41918U 17003B   23297.50975026  .00000131  00000+0  39671-4 0  9995
2 41918  86.3945 132.4508 0001816  83.1025 277.0378 14.34215604354677
IRIDIUM 109             
1 41919U 17003C   23297.51609901  .00000125  00000+0  37734-4 0  9994
2 41919  86.3947 132.4918 0002210  82.3003 277.8443 14.34215420354645
IRIDIUM 102             
1 41920U 17003D   23297.48436781  .00000121  00000+0  36143-4 0  9995
2 41920  86.3943 132.4491 0002301  85.0821 275.0638 14.34211217354723
IRIDIUM 105             
1 41921U 17003E   23297.52479812  .00000051  00000+0  11150-4 0  9996
2 41921  86.3922 100.8413 0002016  90.6722 269.4705 14.34208172356583
IRIDIUM 104             
1 41922U 17003F   23297.49706050  .00000127  00000+0  38334-4 0  9997
2 41922  86.3947 132.4718 0002003  82.1795 277.9628 14.34214748354719
IRIDIUM 114             
1 41923U 17003G   23297.50340262  .00000141  00000+0  43249-4 0  9996
2 41923  86.3946 132.4557 0002153  97.3804 262.7636 14.34217202354691
IRIDIUM 108             
1 41924U 17003H   23297.46192515  .00000201  00000+0  64625-4 0  9996
2 41924  86.3917 100.8078 0001913  97.0872 263.0542 14.34217350356542
